CTC2_L_00370016-03
1 25884U 22060KC  26070.40847222  .00000000  00000+0  00000-0 0  9990
2 25884  65.0000 180.0000 0000000   0.0000   0.0000 13.16009679    12
CTC2_L_00370016-04
1 25885U 26205JV  26070.40847222  .00000000  00000+0  00000-0 0  9996
2 25885  65.0000 180.0000 0000000   0.0000  90.0000 13.16009679    12
CTC2_L_00370017-01
1 25886U 23217HW  26070.40847222  .00000000  00000+0  00000-0 0  9997
2 25886  65.0000 192.0000 0000000   0.0000 192.0000 13.16009679    19
CTC2_L_00370017-02
1 25887U 23297SD  26070.40847222  .00000000  00000+0  00000-0 0  9996
2 25887  65.0000 192.0000 0000000   0.0000 282.0000 13.16009679    10
CTC2_L_00370017-03
1 25888U 22667RW  26070.40847222  .00000000  00000+0  00000-0 0  9997
2 25888  65.0000 192.0000 0000000   0.0000  12.0000 13.16009679    12
CTC2_L_00370017-04
1 25889U 24590WJ  26070.40847222  .00000000  00000+0  00000-0 0  9995
2 25889  65.0000 192.0000 0000000   0.0000 102.0000 13.16009679    13
CTC2_L_00370018-01
1 25890U 26138FT  26070.40847222  .00000000  00000+0  00000-0 0  9997
2 25890  65.0000 204.0000 0000000   0.0000 204.0000 13.16009679    12
CTC2_L_00370018-02
1 25891U 26013KH  26070.40847222  .00000000  00000+0  00000-0 0  9990
2 25891  65.0000 204.0000 0000000   0.0000 294.0000 13.16009679    12
CTC2_L_00370018-03
1 25892U 24755NV  26070.40847222  .00000000  00000+0  00000-0 0  9992
2 25892  65.0000 204.0000 0000000   0.0000  24.0000 13.16009679    14
CTC2_L_00370018-04
1 25893U 23406ZT  26070.40847222  .00000000  00000+0  00000-0 0  9995
2 25893  65.0000 204.0000 0000000   0.0000 114.0000 13.16009679    15
CTC2_L_00370019-01
1 25894U 25454Q   26070.40847222  .00000000  00000+0  00000-0 0  9991
2 25894  65.0000 216.0000 0000000   0.0000 216.0000 13.16009679    12
CTC2_L_00370019-02
1 25895U 22433EU  26070.40847222  .00000000  00000+0  00000-0 0  9996
2 25895  65.0000 216.0000 0000000   0.0000 306.0000 13.16009679    13
CTC2_L_00370019-03
1 25896U 24121YP  26070.40847222  .00000000  00000+0  00000-0 0  9993
2 25896  65.0000 216.0000 0000000   0.0000  36.0000 13.16009679    14
CTC2_L_00370019-04
1 25897U 26118IY  26070.40847222  .00000000  00000+0  00000-0 0  9992
2 25897  65.0000 216.0000 0000000   0.0000 126.0000 13.16009679    15
CTC2_L_00370020-01
1 25898U 25705EO  26070.40847222  .00000000  00000+0  00000-0 0  9994
2 25898  65.0000 228.0000 0000000   0.0000 228.0000 13.16009679    12
CTC2_L_00370020-02
1 25899U 25363DY  26070.40847222  .00000000  00000+0  00000-0 0  9995
2 25899  65.0000 228.0000 0000000   0.0000 318.0000 13.16009679    13
CTC2_L_00370020-03
1 25900U 22696XC  26070.40847222  .00000000  00000+0  00000-0 0  9994
2 25900  65.0000 228.0000 0000000   0.0000  48.0000 13.16009679    16
CTC2_L_00370020-04
1 25901U 23040CM  26070.40847222  .00000000  00000+0  00000-0 0  9999
2 25901  65.0000 228.0000 0000000   0.0000 138.0000 13.16009679    17
CTC2_L_00370021-01
1 25902U 25624DB  26070.40847222  .00000000  00000+0  00000-0 0  9990
2 25902  65.0000 240.0000 0000000   0.0000 240.0000 13.16009679    16
CTC2_L_00370021-02
1 25903U 26764TA  26070.40847222  .00000000  00000+0  00000-0 0  9997
2 25903  65.0000 240.0000 0000000   0.0000 330.0000 13.16009679    17
CTC2_L_00370021-03
1 25904U 25949DB  26070.40847222  .00000000  00000+0  00000-0 0  9992
2 25904  65.0000 240.0000 0000000   0.0000  60.0000 13.16009679    18
CTC2_L_00370021-04
1 25905U 22315FV  26070.40847222  .00000000  00000+0  00000-0 0  9997
2 25905  65.0000 240.0000 0000000   0.0000 150.0000 13.16009679    19
CTC2_L_00370022-01
1 25906U 25594QP  26070.40847222  .00000000  00000+0  00000-0 0  9990
2 25906  65.0000 252.0000 0000000   0.0000 252.0000 13.16009679    16
CTC2_L_00370022-02
1 25907U 24965CI  26070.40847222  .00000000  00000+0  00000-0 0  9992
2 25907  65.0000 252.0000 0000000   0.0000 342.0000 13.16009679    17
CTC2_L_00370022-03
1 25908U 23430ID  26070.40847222  .00000000  00000+0  00000-0 0  9999
2 25908  65.0000 252.0000 0000000   0.0000  72.0000 13.16009679    18
CTC2_L_00370022-04
1 25909U 23270RD  26070.40847222  .00000000  00000+0  00000-0 0  9992
2 25909  65.0000 252.0000 0000000   0.0000 162.0000 13.16009679    19
CTC2_L_00370023-01
1 25910U 24891MB  26070.40847222  .00000000  00000+0  00000-0 0  9994
2 25910  65.0000 264.0000 0000000   0.0000 264.0000 13.16009679    17
CTC2_L_00370023-02
1 25911U 25369YY  26070.40847222  .00000000  00000+0  00000-0 0  9996
2 25911  65.0000 264.0000 0000000   0.0000 354.0000 13.16009679    18
CTC2_L_00370023-03
1 25912U 24460UQ  26070.40847222  .00000000  00000+0  00000-0 0  9998
2 25912  65.0000 264.0000 0000000   0.0000  84.0000 13.16009679    19
CTC2_L_00370023-04
1 25913U 22346ND  26070.40847222  .00000000  00000+0  00000-0 0  9990
2 25913  65.0000 264.0000 0000000   0.0000 174.0000 13.16009679    10
CTC2_L_00370024-01
1 25914U 22393IO  26070.40847222  .00000000  00000+0  00000-0 0  9993
2 25914  65.0000 276.0000 0000000   0.0000 276.0000 13.16009679    17
CTC2_L_00370024-02
1 25915U 26506OF  26070.40847222  .00000000  00000+0  00000-0 0  9994
2 25915  65.0000 276.0000 0000000   0.0000   6.0000 13.16009679    19
CTC2_L_00370024-03
1 25916U 22360CR  26070.40847222  .00000000  00000+0  00000-0 0  9999
2 25916  65.0000 276.0000 0000000   0.0000  96.0000 13.16009679    19
CTC2_L_00370024-04
1 25917U 23712DX  26070.40847222  .00000000  00000+0  00000-0 0  9992
2 25917  65.0000 276.0000 0000000   0.0000 186.0000 13.16009679    10
CTC2_L_00370025-01
1 25918U 26729OR  26070.40847222  .00000000  00000+0  00000-0 0  9994
2 25918  65.0000 288.0000 0000000   0.0000 288.0000 13.16009679    17
CTC2_L_00370025-02
1 25919U 26036QK  26070.40847222  .00000000  00000+0  00000-0 0  9996
2 25919  65.0000 288.0000 0000000   0.0000  18.0000 13.16009679    19
CTC2_L_00370025-03
1 25920U 25442KR  26070.40847222  .00000000  00000+0  00000-0 0  9998
2 25920  65.0000 288.0000 0000000   0.0000 108.0000 13.16009679    11
CTC2_L_00370025-04
1 25921U 24842QZ  26070.40847222  .00000000  00000+0  00000-0 0  9992
2 25921  65.0000 288.0000 0000000   0.0000 198.0000 13.16009679    11
CTC2_L_00370026-01
1 25922U 25801XQ  26070.40847222  .00000000  00000+0  00000-0 0  9999
2 25922  65.0000 300.0000 0000000   0.0000 300.0000 13.16009679    12
CTC2_L_00370026-02
1 25923U 23113LU  26070.40847222  .00000000  00000+0  00000-0 0  9994
2 25923  65.0000 300.0000 0000000   0.0000  30.0000 13.16009679    13
CTC2_L_00370026-03
1 25924U 22104JW  26070.40847222  .00000000  00000+0  00000-0 0  9994
2 25924  65.0000 300.0000 0000000   0.0000 120.0000 13.16009679    14
CTC2_L_00370026-04
1 25925U 24054LC  26070.40847222  .00000000  00000+0  00000-0 0  9991
2 25925  65.0000 300.0000 0000000   0.0000 210.0000 13.16009679    15
CTC2_L_00370027-01
1 25926U 24536MR  26070.40847222  .00000000  00000+0  00000-0 0  9997
2 25926  65.0000 312.0000 0000000   0.0000 312.0000 13.16009679    12
CTC2_L_00370027-02
1 25927U 23732KC  26070.40847222  .00000000  00000+0  00000-0 0  9995
2 25927  65.0000 312.0000 0000000   0.0000  42.0000 13.16009679    13
CTC2_L_00370027-03
1 25928U 24743WA  26070.40847222  .00000000  00000+0  00000-0 0  9999
2 25928  65.0000 312.0000 0000000   0.0000 132.0000 13.16009679    14
CTC2_L_00370027-04
1 25929U 23147EI  26070.40847222  .00000000  00000+0  00000-0 0  9997
2 25929  65.0000 312.0000 0000000   0.0000 222.0000 13.16009679    15
CTC2_L_00370028-01
1 25930U 26884JS  26070.40847222  .00000000  00000+0  00000-0 0  9990
2 25930  65.0000 324.0000 0000000   0.0000 324.0000 13.16009679    13
CTC2_L_00370028-02
1 25931U 26207AO  26070.40847222  .00000000  00000+0  00000-0 0  9990
2 25931  65.0000 324.0000 0000000   0.0000  54.0000 13.16009679    14
CTC2_L_00370028-03
1 25932U 22129RQ  26070.40847222  .00000000  00000+0  00000-0 0  9990
2 25932  65.0000 324.0000 0000000   0.0000 144.0000 13.16009679    15
CTC2_L_00370028-04
1 25933U 24448XW  26070.40847222  .00000000  00000+0  00000-0 0  9997
2 25933  65.0000 324.0000 0000000   0.0000 234.0000 13.16009679    16
CTC2_L_00370029-01
1 25934U 24211PU  26070.40847222  .00000000  00000+0  00000-0 0  9996
2 25934  65.0000 336.0000 0000000   0.0000 336.0000 13.16009679    13
CTC2_L_00370029-02
1 25935U 22178NL  26070.40847222  .00000000  00000+0  00000-0 0  9997
2 25935  65.0000 336.0000 0000000   0.0000  66.0000 13.16009679    14
CTC2_L_00370029-03
1 25936U 23387O   26070.40847222  .00000000  00000+0  00000-0 0  9991
2 25936  65.0000 336.0000 0000000   0.0000 156.0000 13.16009679    15
CTC2_L_00370029-04
1 25937U 23953BM  26070.40847222  .00000000  00000+0  00000-0 0  9991
2 25937  65.0000 336.0000 0000000   0.0000 246.0000 13.16009679    16
CTC2_L_00370030-01
1 25938U 24879WT  26070.40847222  .00000000  00000+0  00000-0 0  9990
2 25938  65.0000 348.0000 0000000   0.0000 348.0000 13.16009679    13
CTC2_L_00370030-02
1 25939U 23089JD  26070.40847222  .00000000  00000+0  00000-0 0  9993
2 25939  65.0000 348.0000 0000000   0.0000  78.0000 13.16009679    14
CTC2_L_00370030-03
1 25940U 24725GW  26070.40847222  .00000000  00000+0  00000-0 0  9993
2 25940  65.0000 348.0000 0000000   0.0000 168.0000 13.16009679    16
CTC2_L_00370030-04
1 25941U 26917QB  26070.40847222  .00000000  00000+0  00000-0 0  9999
2 25941  65.0000 348.0000 0000000   0.0000 258.0000 13.16009679    17
